[
{
"CCSDS_OMM_VERS": "2.0",
"COMMENT": "GENERATED VIA SPACE-TRACK.ORG API",
"CREATION_DATE": "2025-03-20T03:31:02",
"ORIGINATOR": "18 SPCS",
"OBJECT_NAME": "GALILEO 27 (223)",
"OBJECT_ID": "2021-116A",
"CENTER_NAME": "EARTH",
"REF_FRAME": "TEME",
"TIME_SYSTEM": "UTC",
"MEAN_ELEMENT_THEORY": "SGP4",
"EPOCH": "2025-03-19T17:02:46.661856",
"MEAN_MOTION": "1.70475703",
"ECCENTRICITY": "0.00016140",
"INCLINATION": "57.2757",
"RA_OF_ASC_NODE": "353.9432",
"ARG_OF_PERICENTER": "282.0879",
"MEAN_ANOMALY": "275.2811",
"EPHEMERIS_TYPE": "0",
"CLASSIFICATION_TYPE": "U",
"NORAD_CAT_ID": "49809",
"ELEMENT_SET_NO": "999",
"REV_AT_EPOCH": "2043",
"BSTAR": "0.00000000000000",
"MEAN_MOTION_DOT": "-0.00000088",
"MEAN_MOTION_DDOT": "0.0000000000000",
"SEMIMAJOR_AXIS": "29600.123",
"PERIOD": "844.695",
"APOAPSIS": "23226.765",
"PERIAPSIS": "23217.210",
"OBJECT_TYPE": "PAYLOAD",
"RCS_SIZE": "LARGE",
"COUNTRY_CODE": "ESA",
"LAUNCH_DATE": "2021-12-05",
"SITE": "FRGUI",
"DECAY_DATE": null,
"FILE": "4674434",
"GP_ID": "283540882",
"TLE_LINE0": "0 GALILEO 27 (223)",
"TLE_LINE1": "1 49809U 21116A   25078.71026229 -.00000088  00000-0  00000-0 0  9999",
"TLE_LINE2": "2 49809  57.2757 353.9432 0001614 282.0879 275.2811  1.70475703 20431"
},
{
"CCSDS_OMM_VERS": "2.0",
"COMMENT": "GENERATED VIA SPACE-TRACK.ORG API",
"CREATION_DATE": "2025-03-19T17:43:14",
"ORIGINATOR": "18 SPCS",
"OBJECT_NAME": "GALILEO 31 (10D)",
"OBJECT_ID": "2024-167B",
"CENTER_NAME": "EARTH",
"REF_FRAME": "TEME",
"TIME_SYSTEM": "UTC",
"MEAN_ELEMENT_THEORY": "SGP4",
"EPOCH": "2025-03-19T11:39:35.424288",
"MEAN_MOTION": "1.70474370",
"ECCENTRICITY": "0.00018690",
"INCLINATION": "55.3358",
"RA_OF_ASC_NODE": "233.7923",
"ARG_OF_PERICENTER": "128.2122",
"MEAN_ANOMALY": "230.9379",
"EPHEMERIS_TYPE": "0",
"CLASSIFICATION_TYPE": "U",
"NORAD_CAT_ID": "61183",
"ELEMENT_SET_NO": "999",
"REV_AT_EPOCH": "309",
"BSTAR": "0.00000000000000",
"MEAN_MOTION_DOT": "0.00000033",
"MEAN_MOTION_DDOT": "0.0000000000000",
"SEMIMAJOR_AXIS": "29600.277",
"PERIOD": "844.702",
"APOAPSIS": "23227.675",
"PERIAPSIS": "23216.610",
"OBJECT_TYPE": "PAYLOAD",
"RCS_SIZE": "LARGE",
"COUNTRY_CODE": "ESA",
"LAUNCH_DATE": "2024-09-17",
"SITE": "AFETR",
"DECAY_DATE": null,
"FILE": "4674121",
"GP_ID": "283511816",
"TLE_LINE0": "0 GALILEO 31 (10D)",
"TLE_LINE1": "1 61183U 24167B   25078.48582667  .00000033  00000-0  00000-0 0  9993",
"TLE_LINE2": "2 61183  55.3358 233.7923 0001869 128.2122 230.9379  1.70474370  3099"
},
{
"CCSDS_OMM_VERS": "2.0",
"COMMENT": "GENERATED VIA SPACE-TRACK.ORG API",
"CREATION_DATE": "2025-03-19T17:43:14",
"ORIGINATOR": "18 SPCS",
"OBJECT_NAME": "GALILEO 28 (224)",
"OBJECT_ID": "2021-116B",
"CENTER_NAME": "EARTH",
"REF_FRAME": "TEME",
"TIME_SYSTEM": "UTC",
"MEAN_ELEMENT_THEORY": "SGP4",
"EPOCH": "2025-03-19T11:33:38.270016",
"MEAN_MOTION": "1.70475753",
"ECCENTRICITY": "0.00013670",
"INCLINATION": "57.2766",
"RA_OF_ASC_NODE": "353.9475",
"ARG_OF_PERICENTER": "301.1632",
"MEAN_ANOMALY": "228.4726",
"EPHEMERIS_TYPE": "0",
"CLASSIFICATION_TYPE": "U",
"NORAD_CAT_ID": "49810",
"ELEMENT_SET_NO": "999",
"REV_AT_EPOCH": "2045",
"BSTAR": "0.00000000000000",
"MEAN_MOTION_DOT": "-0.00000089",
"MEAN_MOTION_DDOT": "0.0000000000000",
"SEMIMAJOR_AXIS": "29600.117",
"PERIOD": "844.695",
"APOAPSIS": "23226.028",
"PERIAPSIS": "23217.936",
"OBJECT_TYPE": "PAYLOAD",
"RCS_SIZE": "LARGE",
"COUNTRY_CODE": "ESA",
"LAUNCH_DATE": "2021-12-05",
"SITE": "FRGUI",
"DECAY_DATE": null,
"FILE": "4674121",
"GP_ID": "283504360",
"TLE_LINE0": "0 GALILEO 28 (224)",
"TLE_LINE1": "1 49810U 21116B   25078.48169294 -.00000089  00000-0  00000-0 0  9996",
"TLE_LINE2": "2 49810  57.2766 353.9475 0001367 301.1632 228.4726  1.70475753 20457"
},
{
"CCSDS_OMM_VERS": "2.0",
"COMMENT": "GENERATED VIA SPACE-TRACK.ORG API",
"CREATION_DATE": "2025-03-19T17:43:14",
"ORIGINATOR": "18 SPCS",
"OBJECT_NAME": "GALILEO 30 (10E)",
"OBJECT_ID": "2024-079C",
"CENTER_NAME": "EARTH",
"REF_FRAME": "TEME",
"TIME_SYSTEM": "UTC",
"MEAN_ELEMENT_THEORY": "SGP4",
"EPOCH": "2025-03-19T09:39:04.580640",
"MEAN_MOTION": "1.70475163",
"ECCENTRICITY": "0.00003380",
"INCLINATION": "54.8379",
"RA_OF_ASC_NODE": "113.8017",
"ARG_OF_PERICENTER": "206.2591",
"MEAN_ANOMALY": "153.8107",
"EPHEMERIS_TYPE": "0",
"CLASSIFICATION_TYPE": "U",
"NORAD_CAT_ID": "59600",
"ELEMENT_SET_NO": "999",
"REV_AT_EPOCH": "561",
"BSTAR": "0.00000000000000",
"MEAN_MOTION_DOT": "0.00000033",
"MEAN_MOTION_DDOT": "0.0000000000000",
"SEMIMAJOR_AXIS": "29600.185",
"PERIOD": "844.698",
"APOAPSIS": "23223.051",
"PERIAPSIS": "23221.050",
"OBJECT_TYPE": "PAYLOAD",
"RCS_SIZE": "LARGE",
"COUNTRY_CODE": "ESA",
"LAUNCH_DATE": "2024-04-28",
"SITE": "AFETR",
"DECAY_DATE": null,
"FILE": "4674121",
"GP_ID": "283510610",
"TLE_LINE0": "0 GALILEO 30 (10E)",
"TLE_LINE1": "1 59600U 24079C   25078.40213635  .00000033  00000-0  00000-0 0  9994",
"TLE_LINE2": "2 59600  54.8379 113.8017 0000338 206.2591 153.8107  1.70475163  5619"
},
{
"CCSDS_OMM_VERS": "2.0",
"COMMENT": "GENERATED VIA SPACE-TRACK.ORG API",
"CREATION_DATE": "2025-03-19T17:43:14",
"ORIGINATOR": "18 SPCS",
"OBJECT_NAME": "GALILEO 14 (26B)",
"OBJECT_ID": "2016-030A",
"CENTER_NAME": "EARTH",
"REF_FRAME": "TEME",
"TIME_SYSTEM": "UTC",
"MEAN_ELEMENT_THEORY": "SGP4",
"EPOCH": "2025-03-19T04:38:18.747456",
"MEAN_MOTION": "1.70473943",
"ECCENTRICITY": "0.00031380",
"INCLINATION": "55.2518",
"RA_OF_ASC_NODE": "234.2061",
"ARG_OF_PERICENTER": "23.5776",
"MEAN_ANOMALY": "336.3885",
"EPHEMERIS_TYPE": "0",
"CLASSIFICATION_TYPE": "U",
"NORAD_CAT_ID": "41549",
"ELEMENT_SET_NO": "999",
"REV_AT_EPOCH": "5491",
"BSTAR": "0.00000000000000",
"MEAN_MOTION_DOT": "0.00000031",
"MEAN_MOTION_DDOT": "0.0000000000000",
"SEMIMAJOR_AXIS": "29600.327",
"PERIOD": "844.704",
"APOAPSIS": "23231.480",
"PERIAPSIS": "23212.903",
"OBJECT_TYPE": "PAYLOAD",
"RCS_SIZE": "LARGE",
"COUNTRY_CODE": "ESA",
"LAUNCH_DATE": "2016-05-24",
"SITE": "FRGUI",
"DECAY_DATE": null,
"FILE": "4674121",
"GP_ID": "283499557",
"TLE_LINE0": "0 GALILEO 14 (26B)",
"TLE_LINE1": "1 41549U 16030A   25078.19327254  .00000031  00000-0  00000-0 0  9992",
"TLE_LINE2": "2 41549  55.2518 234.2061 0003138  23.5776 336.3885  1.70473943 54917"
},
{
"CCSDS_OMM_VERS": "2.0",
"COMMENT": "GENERATED VIA SPACE-TRACK.ORG API",
"CREATION_DATE": "2025-03-19T17:43:14",
"ORIGINATOR": "18 SPCS",
"OBJECT_NAME": "GALILEO 20 (2C6)",
"OBJECT_ID": "2017-079B",
"CENTER_NAME": "EARTH",
"REF_FRAME": "TEME",
"TIME_SYSTEM": "UTC",
"MEAN_ELEMENT_THEORY": "SGP4",
"EPOCH": "2025-03-19T02:51:39.572064",
"MEAN_MOTION": "1.70474746",
"ECCENTRICITY": "0.00015470",
"INCLINATION": "55.2299",
"RA_OF_ASC_NODE": "234.0261",
"ARG_OF_PERICENTER": "308.1580",
"MEAN_ANOMALY": "51.7794",
"EPHEMERIS_TYPE": "0",
"CLASSIFICATION_TYPE": "U",
"NORAD_CAT_ID": "43056",
"ELEMENT_SET_NO": "999",
"REV_AT_EPOCH": "4524",
"BSTAR": "0.00000000000000",
"MEAN_MOTION_DOT": "0.00000031",
"MEAN_MOTION_DDOT": "0.0000000000000",
"SEMIMAJOR_AXIS": "29600.234",
"PERIOD": "844.700",
"APOAPSIS": "23226.678",
"PERIAPSIS": "23217.520",
"OBJECT_TYPE": "PAYLOAD",
"RCS_SIZE": "LARGE",
"COUNTRY_CODE": "ESA",
"LAUNCH_DATE": "2017-12-12",
"SITE": "FRGUI",
"DECAY_DATE": null,
"FILE": "4674121",
"GP_ID": "283500014",
"TLE_LINE0": "0 GALILEO 20 (2C6)",
"TLE_LINE1": "1 43056U 17079B   25078.11920801  .00000031  00000-0  00000-0 0  9990",
"TLE_LINE2": "2 43056  55.2299 234.0261 0001547 308.1580  51.7794  1.70474746 45240"
},
{
"CCSDS_OMM_VERS": "2.0",
"COMMENT": "GENERATED VIA SPACE-TRACK.ORG API",
"CREATION_DATE": "2025-03-19T17:43:14",
"ORIGINATOR": "18 SPCS",
"OBJECT_NAME": "GALILEO 26 (2C2)",
"OBJECT_ID": "2018-060B",
"CENTER_NAME": "EARTH",
"REF_FRAME": "TEME",
"TIME_SYSTEM": "UTC",
"MEAN_ELEMENT_THEORY": "SGP4",
"EPOCH": "2025-03-19T02:15:18.800640",
"MEAN_MOTION": "1.70475320",
"ECCENTRICITY": "0.00042370",
"INCLINATION": "57.2866",
"RA_OF_ASC_NODE": "354.0651",
"ARG_OF_PERICENTER": "281.2217",
"MEAN_ANOMALY": "78.7568",
"EPHEMERIS_TYPE": "0",
"CLASSIFICATION_TYPE": "U",
"NORAD_CAT_ID": "43565",
"ELEMENT_SET_NO": "999",
"REV_AT_EPOCH": "4145",
"BSTAR": "0.00000000000000",
"MEAN_MOTION_DOT": "-0.00000090",
"MEAN_MOTION_DDOT": "0.0000000000000",
"SEMIMAJOR_AXIS": "29600.167",
"PERIOD": "844.697",
"APOAPSIS": "23234.574",
"PERIAPSIS": "23209.491",
"OBJECT_TYPE": "PAYLOAD",
"RCS_SIZE": "LARGE",
"COUNTRY_CODE": "ESA",
"LAUNCH_DATE": "2018-07-25",
"SITE": "FRGUI",
"DECAY_DATE": null,
"FILE": "4674121",
"GP_ID": "283500659",
"TLE_LINE0": "0 GALILEO 26 (2C2)",
"TLE_LINE1": "1 43565U 18060B   25078.09396760 -.00000090  00000-0  00000-0 0  9990",
"TLE_LINE2": "2 43565  57.2866 354.0651 0004237 281.2217  78.7568  1.70475320 41456"
},
{
"CCSDS_OMM_VERS": "2.0",
"COMMENT": "GENERATED VIA SPACE-TRACK.ORG API",
"CREATION_DATE": "2025-03-19T06:56:33",
"ORIGINATOR": "18 SPCS",
"OBJECT_NAME": "GALILEO 9 (205)",
"OBJECT_ID": "2015-045A",
"CENTER_NAME": "EARTH",
"REF_FRAME": "TEME",
"TIME_SYSTEM": "UTC",
"MEAN_ELEMENT_THEORY": "SGP4",
"EPOCH": "2025-03-19T01:07:32.348352",
"MEAN_MOTION": "1.70473874",
"ECCENTRICITY": "0.00056030",
"INCLINATION": "55.1001",
"RA_OF_ASC_NODE": "234.1739",
"ARG_OF_PERICENTER": "48.8871",
"MEAN_ANOMALY": "311.1122",
"EPHEMERIS_TYPE": "0",
"CLASSIFICATION_TYPE": "U",
"NORAD_CAT_ID": "40889",
"ELEMENT_SET_NO": "999",
"REV_AT_EPOCH": "5925",
"BSTAR": "0.00000000000000",
"MEAN_MOTION_DOT": "0.00000030",
"MEAN_MOTION_DDOT": "0.0000000000000",
"SEMIMAJOR_AXIS": "29600.335",
"PERIOD": "844.704",
"APOAPSIS": "23238.785",
"PERIAPSIS": "23205.615",
"OBJECT_TYPE": "PAYLOAD",
"RCS_SIZE": "LARGE",
"COUNTRY_CODE": "ESA",
"LAUNCH_DATE": "2015-09-11",
"SITE": "FRGUI",
"DECAY_DATE": null,
"FILE": "4673658",
"GP_ID": "283473500",
"TLE_LINE0": "0 GALILEO 9 (205)",
"TLE_LINE1": "1 40889U 15045A   25078.04690218  .00000030  00000-0  00000+0 0  9998",
"TLE_LINE2": "2 40889  55.1001 234.1739 0005603  48.8871 311.1122  1.70473874 59255"
}
]
